*******************************************************************************
 Revised: July 31, 2013             Moon / (Earth)                          301
 
 GEOPHYSICAL DATA (updated 2018-Aug-15):
  Vol. mean radius, km  = 1737.53+-0.03    Mass, x10^22 kg       =    7.349
  Radius (gravity), km  = 1738.0           Surface emissivity    =    0.92
  Radius (IAU), km      = 1737.4           GM, km^3/s^2          = 4902.800066
  Density, g/cm^3       =    3.3437        GM 1-sigma, km^3/s^2  =  +-0.0001  
  V(1,0)                =   +0.21          Surface accel., m/s^2 =    1.62
  Earth/Moon mass ratio = 81.3005690769    Farside crust. thick. = ~80 - 90 km
  Mean crustal density  = 2.97+-.07 g/cm^3 Nearside crust. thick.= 58+-8 km 
  Heat flow, Apollo 15  = 3.1+-.6 mW/m^2   Mean angular diameter = 31'05.2"
  Heat flow, Apollo 17  = 2.2+-.5 mW/m^2   Sid. rot. rate, rad/s = 0.0000026617
  Geometric Albedo      = 0.12             Mean solar day        = 29.5306 d
  Obliquity to orbit    = 6.67 deg         Orbit period          = 27.321582 d
  Semi-major axis, a    = 384400 km        Eccentricity          = 0.05490
  Mean motion, rad/s    = 2.6616995x10^-6  Inclination           = 5.145 deg
  Apsidal period        = 3231.50 d        Nodal period          = 6798.38 d
                                 Perihelion  Aphelion    Mean
  Solar Constant (W/m^2)         1414+-7     1323+-7     1368+-7
  Maximum Planetary IR (W/m^2)   1314        1226        1268
  Minimum Planetary IR (W/m^2)      5.2         5.2         5.2
********************************************************************************


*******************************************************************************
Ephemeris / WWW_USER Wed Apr 15 09:14:20 2026 Pasadena, USA      / Horizons
*******************************************************************************
Target body name: Moon (301)                      {source: DE441}
Center body name: Sun (10)                        {source: DE441}
Center-site name: BODY CENTER
*******************************************************************************
Start time      : A.D. 2025-Jan-01 00:00:00.0000 TDB
Stop  time      : A.D. 2032-Jan-01 00:00:00.0000 TDB
Step-size       : 7200 minutes
*******************************************************************************
Center geodetic : 0.0, 0.0, 0.0                   {E-lon(deg),Lat(deg),Alt(km)}
Center cylindric: 0.0, 0.0, 0.0                   {E-lon(deg),Dxy(km),Dz(km)}
Center radii    : 695700.0, 695700.0, 695700.0 km {Equator_a, b, pole_c}
Keplerian GM    : 1.3271244494407951E+11 km^3/s^2
Output units    : KM-S, deg, Julian Day Number (Tp)
Calendar mode   : Mixed Julian/Gregorian
Output type     : GEOMETRIC osculating elements
Output format   : 10
Reference frame : Ecliptic of J2000.0
*******************************************************************************
JDTDB
   EC    QR   IN
   OM    W    Tp
   N     MA   TA
   A     AD   PR
*******************************************************************************
$$SOE
2460946.500000000 = A.D. 2025-Sep-28 00:00:00.0000 TDB 
 EC= 2.820948496891427E-02 QR= 1.418714411351601E+08 IN= 2.071318018407740E-02
 OM= 1.401491695688570E+02 W = 6.736074097586678E+01 Tp=  2460794.067180327605
 N = 1.183300289742786E-05 MA= 1.558429629275025E+02 TA= 1.571244646920848E+02
 A = 1.459897364100348E+08 AD= 1.501080316849094E+08 PR= 3.042338475876256E+07
2460951.500000000 = A.D. 2025-Oct-03 00:00:00.0000 TDB 
 EC= 4.450809705832055E-02 QR= 1.498186389528846E+08 IN= 1.501185781023504E-01
 OM= 1.265073640647067E+01 W = 3.467176072549473E+02 Tp=  2460941.344174249098
 N = 1.063090416548789E-05 MA= 9.328228728172927E+00 TA= 1.020279601867717E+01
 A = 1.567973925175472E+08 AD= 1.637761460822098E+08 PR= 3.386353544308130E+07
2460956.500000000 = A.D. 2025-Oct-08 00:00:00.0000 TDB 
 EC= 7.888113409958460E-02 QR= 1.492746961978912E+08 IN= 1.385083987768434E-01
 OM= 1.192550121673758E+01 W = 2.112982831682762E+01 Tp=  2460974.471178016625
 N = 1.011748757296339E-05 MA= 3.442904780900257E+02 TA= 3.415886072665768E+02
 A = 1.620580163147257E+08 AD= 1.748413364315602E+08 PR= 3.558195623210009E+07
2460961.500000000 = A.D. 2025-Oct-13 00:00:00.0000 TDB 
 EC= 5.170379004859580E-02 QR= 1.445751187617588E+08 IN= 6.225318841497166E-02
 OM= 2.093649274656962E+02 W = 2.397556235936862E+02 Tp=  2461028.257116744760
 N = 1.108802363870276E-05 MA= 2.960463321921017E+02 TA= 2.905763064774544E+02
 A = 1.524577629274376E+08 AD= 1.603404070931164E+08 PR= 3.246746324957494E+07
2460966.500000000 = A.D. 2025-Oct-18 00:00:00.0000 TDB 
 EC= 5.902384450403066E-02 QR= 1.338517445238496E+08 IN= 1.772734050538891E-01
 OM= 2.042416483991873E+02 W = 3.233196036699850E+02 Tp=  2461097.010427560192
 N = 1.230298038113137E-05 MA= 2.212703513449529E+02 TA= 2.170476229081117E+02
 A = 1.422477538267684E+08 AD= 1.506437631296872E+08 PR= 2.926120247676886E+07
2460971.500000000 = A.D. 2025-Oct-23 00:00:00.0000 TDB 
 EC= 5.920912347841212E-02 QR= 1.319408300753488E+08 IN= 9.394963010373793E-02
 OM= 2.010193526162765E+02 W = 1.001868753602559E+00 Tp=  2461129.594689513091
 N = 1.256751132176113E-05 MA= 1.883355724481212E+02 TA= 1.874192841752655E+02
 A = 1.402445892791576E+08 AD= 1.485483484829665E+08 PR= 2.864528949153570E+07
2460976.500000000 = A.D. 2025-Oct-28 00:00:00.0000 TDB 
 EC= 1.860685387282027E-02 QR= 1.438680118077300E+08 IN= 8.524883325006069E-02
 OM= 4.386123333138634E+01 W = 2.147607113913239E+02 Tp=  2460844.420598386787
 N = 1.175971036938247E-05 MA= 1.341978199545268E+02 TA= 1.357018867487755E+02
 A = 1.465956965110963E+08 AD= 1.493233812144626E+08 PR= 3.061299884878920E+07
2460981.500000000 = A.D. 2025-Nov-02 00:00:00.0000 TDB 
 EC= 5.957630644578093E-02 QR= 1.486142260400065E+08 IN= 1.701910786188007E-01
 OM= 3.989549188755318E+01 W = 3.514801071375808E+02 Tp=  2460973.707418278325
 N = 1.050686676341598E-05 MA= 7.074053385751299E+00 TA= 7.981623813300902E+00
 A = 1.580290108156855E+08 AD= 1.674437955913644E+08 PR= 3.426330685504545E+07
2460986.500000000 = A.D. 2025-Nov-07 00:00:00.0000 TDB 
 EC= 8.519511082711628E-02 QR= 1.480212421361201E+08 IN= 3.689174039304917E-02
 OM= 3.005500474335588E+01 W = 3.254959616844271E+01 Tp=  2461003.879554314073
 N = 1.014110096477361E-05 MA= 3.447721887820265E+02 TA= 3.419170293060362E+02
 A = 1.618063522484590E+08 AD= 1.755914623607979E+08 PR= 3.549910421467108E+07
2460991.500000000 = A.D. 2025-Nov-12 00:00:00.0000 TDB 
 EC= 4.820876796113912E-02 QR= 1.438744737061923E+08 IN= 1.443663867204069E-01
 OM= 2.310345832241856E+02 W = 2.463728359356674E+02 Tp=  2461056.139322345611
 N = 1.123092133002156E-05 MA= 2.972771299507947E+02 TA= 2.922343666764276E+02
 A = 1.511617977379288E+08 AD= 1.584491217696653E+08 PR= 3.205436040564882E+07
2460996.500000000 = A.D. 2025-Nov-17 00:00:00.0000 TDB 
 EC= 5.121371692912995E-02 QR= 1.345324108738874E+08 IN= 1.429468402010621E-01
 OM= 2.304384845627894E+02 W = 3.289925262409783E+02 Tp=  2461128.812295636162
 N = 1.236205484405763E-05 MA= 2.186796797107942E+02 TA= 2.151889933023961E+02
 A = 1.417942199147903E+08 AD= 1.490560289556932E+08 PR= 2.912137217810920E+07
2461001.500000000 = A.D. 2025-Nov-22 00:00:00.0000 TDB 
 EC= 5.029555149978841E-02 QR= 1.332777884292149E+08 IN= 2.000665637887723E-02
 OM= 1.158591841218907E+02 W = 1.219414725806506E+02 Tp=  2461165.677798327059
 N = 1.255522498664774E-05 MA= 1.819046134821503E+02 TA= 1.817244108445154E+02
 A = 1.403360683838950E+08 AD= 1.473943483385750E+08 PR= 2.867332129713753E+07
2461006.500000000 = A.D. 2025-Nov-27 00:00:00.0000 TDB 
 EC= 1.945612331425971E-02 QR= 1.444927339429469E+08 IN= 1.539778793226550E-01
 OM= 6.773358242788261E+01 W = 2.623007153487733E+02 Tp=  2460915.019241133705
 N = 1.166836464774809E-05 MA= 9.222602567373475E+01 TA= 9.445118874302926E+01
 A = 1.473597840734424E+08 AD= 1.502268342039380E+08 PR= 3.085265252397450E+07
2461011.500000000 = A.D. 2025-Dec-02 00:00:00.0000 TDB 
 EC= 7.323937071982463E-02 QR= 1.476281236650160E+08 IN= 1.179411858523150E-01
 OM= 6.711948276311986E+01 W = 3.529188506085291E+02 Tp=  2461002.313213037793
 N = 1.038188398013648E-05 MA= 8.240499912355199E+00 TA= 9.562590286382923E+00
 A = 1.592947725667633E+08 AD= 1.709614214685107E+08 PR= 3.467578723560996E+07
2461016.500000000 = A.D. 2025-Dec-07 00:00:00.0000 TDB 
 EC= 8.594108527092184E-02 QR= 1.472808738303408E+08 IN= 7.994330485913778E-02
 OM= 2.599264433952466E+02 W = 1.904186790249648E+02 Tp=  2461031.282535463106
 N = 1.020516925901627E-05 MA= 3.469658449122065E+02 TA= 3.444873277358438E+02
 A = 1.611284255938733E+08 AD= 1.749759773574057E+08 PR= 3.527623999787557E+07
2461021.500000000 = A.D. 2025-Dec-12 00:00:00.0000 TDB 
 EC= 4.087898199493786E-02 QR= 1.440153401121027E+08 IN= 1.633690398476094E-01
 OM= 2.580966446974855E+02 W = 2.461835512655053E+02 Tp=  2461082.838224527892
 N = 1.134424084153007E-05 MA= 2.998798048653076E+02 TA= 2.957157999075786E+02
 A = 1.501534607297519E+08 AD= 1.562915813474010E+08 PR= 3.173416405988824E+07
2461026.500000000 = A.D. 2025-Dec-17 00:00:00.0000 TDB 
 EC= 4.430343667032357E-02 QR= 1.351581806392547E+08 IN= 6.054575715930963E-02
 OM= 2.494945152295793E+02 W = 3.474910475732392E+02 Tp=  2461165.933252093848
 N = 1.241066315330256E-05 MA= 2.104883316771643E+02 TA= 2.080308230656279E+02
 A = 1.414237382714440E+08 AD= 1.476892959036334E+08 PR= 2.900731375536541E+07
2461031.500000000 = A.D. 2025-Dec-22 00:00:00.0000 TDB 
 EC= 4.613913473908488E-02 QR= 1.339459754353039E+08 IN= 1.129513299909942E-01
 OM= 9.693394028454119E+01 W = 1.828394937128440E+02 Tp=  2460875.320748101920
 N = 1.254329106708333E-05 MA= 1.692577568329859E+02 TA= 1.701902439964952E+02
 A = 1.404250664992581E+08 AD= 1.469041575632123E+08 PR= 2.870060162637287E+07
